ONEWEB-0614             
1 55156U 23004S   26079.26945116  .00000323  00000+0  87660-3 0  9996
2 55156  87.8878  38.7554 0001676  76.5842 283.5473 13.11418346154187
ONEWEB-0616             
1 55157U 23004T   26078.84210566  .00000007  00000+0 -14446-4 0  9997
2 55157  87.9172  23.6081 0002212 104.9699 255.1677 13.17649386155938
ONEWEB-0617             
1 55158U 23004U   26079.25758839  .00000567  00000+0  15631-2 0  9999
2 55158  87.8890  38.7422 0001711  68.2854 291.8456 13.11421435154207
ONEWEB-0618             
1 55159U 23004V   26078.88709098  .00005368  00000+0  30960-3 0  9998
2 55159  86.9106 213.8406 0010420 263.4003  96.6051 15.12119783168769
ONEWEB-0619             
1 55160U 23004W   26079.25384599  .00000011  00000+0 -55454-5 0  9995
2 55160  87.9177  23.4999 0001481  84.8874 275.2427 13.17650261155885
ONEWEB-0620             
1 55161U 23004X   26078.87101366  .00000583  00000+0  16086-2 0  9990
2 55161  87.8879  38.8341 0002100  75.5792 284.5568 13.11417031154125
ONEWEB-0621             
1 55162U 23004Y   26079.27960151 -.00000092  00000+0 -29418-3 0  9992
2 55162  87.8888  38.7334 0001640  76.3279 283.8031 13.11416578154159
ONEWEB-0622             
1 55163U 23004Z   26078.90319895 -.00000361  00000+0 -10549-2 0  9998
2 55163  87.8887  38.8106 0001831  57.7657 302.3648 13.11414496154093
ONEWEB-0623             
1 55164U 23004AA  26078.86910197  .00000008  00000+0 -11760-4 0  9991
2 55164  87.9167  23.6169 0001299  60.6323 299.4938 13.17650044155825
ONEWEB-0624             
1 55165U 23004AB  26079.25887636  .00000356  00000+0  94821-3 0  9990
2 55165  87.9012   8.2548 0001614  75.5032 284.6276 13.12923006156400
ONEWEB-0625             
1 55166U 23004AC  26079.23865768  .00000059  00000+0  11976-3 0  9991
2 55166  87.9167  23.5373 0001869  85.4522 274.6823 13.17650465155861
ONEWEB-0626             
1 55167U 23004AD  26079.22853056  .00000089  00000+0  19537-3 0  9992
2 55167  87.9166  23.5397 0002300  75.9838 284.1549 13.17647964155863
ONEWEB-0627             
1 55168U 23004AE  26079.29265159  .00000086  00000+0  18818-3 0  9999
2 55168  87.9165  23.5270 0001459  67.6911 292.4375 13.17650633155874
ONEWEB-0628             
1 55169U 23004AF  26079.28377999 -.00000353  00000+0 -10175-2 0  9991
2 55169  87.9014   8.3002 0001183  66.7689 293.3564 13.12442669156377
ONEWEB-0629             
1 55170U 23004AG  26079.26818233  .00000051  00000+0  98431-4 0  9998
2 55170  87.9163  23.5282 0001569  86.9912 273.1399 13.17648059155876
ONEWEB-0631             
1 55171U 23004AH  26079.17388550  .00000083  00000+0  17812-3 0  9991
2 55171  87.9253 353.1183 0002139  67.6891 292.4468 13.18687115157943
ONEWEB-0709             
1 55172U 23004AJ  26078.93714112  .00000194  00000+0  51130-3 0  9996
2 55172  87.8877  38.8245 0002747  78.7680 281.3757 13.11418187154179
