[{"OBJECT_NAME":"ONEWEB-0614","OBJECT_ID":"2023-004S","EPOCH":"2026-03-20T06:28:00.580224","MEAN_MOTION":13.11418346,"ECCENTRICITY":0.0001676,"INCLINATION":87.8878,"RA_OF_ASC_NODE":38.7554,"ARG_OF_PERICENTER":76.5842,"MEAN_ANOMALY":283.5473,"EPHEMERIS_TYPE":0,"CLASSIFICATION_TYPE":"U","NORAD_CAT_ID":55156,"ELEMENT_SET_NO":999,"REV_AT_EPOCH":15418,"BSTAR":0.00087659565,"MEAN_MOTION_DOT":3.23e-6,"MEAN_MOTION_DDOT":0},{"OBJECT_NAME":"ONEWEB-0616","OBJECT_ID":"2023-004T","EPOCH":"2026-03-19T20:12:37.929024","MEAN_MOTION":13.17649386,"ECCENTRICITY":0.00022124,"INCLINATION":87.9172,"RA_OF_ASC_NODE":23.6081,"ARG_OF_PERICENTER":104.9699,"MEAN_ANOMALY":255.1677,"EPHEMERIS_TYPE":0,"CLASSIFICATION_TYPE":"U","NORAD_CAT_ID":55157,"ELEMENT_SET_NO":999,"REV_AT_EPOCH":15593,"BSTAR":-1.4445964e-5,"MEAN_MOTION_DOT":7.0e-8,"MEAN_MOTION_DDOT":0},{"OBJECT_NAME":"ONEWEB-0617","OBJECT_ID":"2023-004U","EPOCH":"2026-03-20T06:10:55.636896","MEAN_MOTION":13.11421435,"ECCENTRICITY":0.00017114,"INCLINATION":87.889,"RA_OF_ASC_NODE":38.7422,"ARG_OF_PERICENTER":68.2854,"MEAN_ANOMALY":291.8456,"EPHEMERIS_TYPE":0,"CLASSIFICATION_TYPE":"U","NORAD_CAT_ID":55158,"ELEMENT_SET_NO":999,"REV_AT_EPOCH":15420,"BSTAR":0.0015631019,"MEAN_MOTION_DOT":5.67e-6,"MEAN_MOTION_DDOT":0},{"OBJECT_NAME":"ONEWEB-0618","OBJECT_ID":"2023-004V","EPOCH":"2026-03-19T21:17:24.660672","MEAN_MOTION":15.12119783,"ECCENTRICITY":0.001042,"INCLINATION":86.9106,"RA_OF_ASC_NODE":213.8406,"ARG_OF_PERICENTER":263.4003,"MEAN_ANOMALY":96.6051,"EPHEMERIS_TYPE":0,"CLASSIFICATION_TYPE":"U","NORAD_CAT_ID":55159,"ELEMENT_SET_NO":999,"REV_AT_EPOCH":16876,"BSTAR":0.0003096,"MEAN_MOTION_DOT":5.368e-5,"MEAN_MOTION_DDOT":0},{"OBJECT_NAME":"ONEWEB-0619","OBJECT_ID":"2023-004W","EPOCH":"2026-03-20T06:05:32.293536","MEAN_MOTION":13.17650261,"ECCENTRICITY":0.00014814,"INCLINATION":87.9177,"RA_OF_ASC_NODE":23.4999,"ARG_OF_PERICENTER":84.8874,"MEAN_ANOMALY":275.2427,"EPHEMERIS_TYPE":0,"CLASSIFICATION_TYPE":"U","NORAD_CAT_ID":55160,"ELEMENT_SET_NO":999,"REV_AT_EPOCH":15588,"BSTAR":-5.545417e-6,"MEAN_MOTION_DOT":1.1e-7,"MEAN_MOTION_DDOT":0},{"OBJECT_NAME":"ONEWEB-0620","OBJECT_ID":"2023-004X","EPOCH":"2026-03-19T20:54:15.580224","MEAN_MOTION":13.11417031,"ECCENTRICITY":0.00021006,"INCLINATION":87.8879,"RA_OF_ASC_NODE":38.8341,"ARG_OF_PERICENTER":75.5792,"MEAN_ANOMALY":284.5568,"EPHEMERIS_TYPE":0,"CLASSIFICATION_TYPE":"U","NORAD_CAT_ID":55161,"ELEMENT_SET_NO":999,"REV_AT_EPOCH":15412,"BSTAR":0.0016086318,"MEAN_MOTION_DOT":5.83e-6,"MEAN_MOTION_DDOT":0},{"OBJECT_NAME":"ONEWEB-0621","OBJECT_ID":"2023-004Y","EPOCH":"2026-03-20T06:42:37.570464","MEAN_MOTION":13.11416578,"ECCENTRICITY":0.00016401,"INCLINATION":87.8888,"RA_OF_ASC_NODE":38.7334,"ARG_OF_PERICENTER":76.3279,"MEAN_ANOMALY":283.8031,"EPHEMERIS_TYPE":0,"CLASSIFICATION_TYPE":"U","NORAD_CAT_ID":55162,"ELEMENT_SET_NO":999,"REV_AT_EPOCH":15415,"BSTAR":-0.00029418306,"MEAN_MOTION_DOT":-9.2e-7,"MEAN_MOTION_DDOT":0},{"OBJECT_NAME":"ONEWEB-0622","OBJECT_ID":"2023-004Z","EPOCH":"2026-03-19T21:40:36.389280","MEAN_MOTION":13.11414496,"ECCENTRICITY":0.0001831,"INCLINATION":87.8887,"RA_OF_ASC_NODE":38.8106,"ARG_OF_PERICENTER":57.7657,"MEAN_ANOMALY":302.3648,"EPHEMERIS_TYPE":0,"CLASSIFICATION_TYPE":"U","NORAD_CAT_ID":55163,"ELEMENT_SET_NO":999,"REV_AT_EPOCH":15409,"BSTAR":-0.0010549,"MEAN_MOTION_DOT":-3.61e-6,"MEAN_MOTION_DDOT":0},{"OBJECT_NAME":"ONEWEB-0623","OBJECT_ID":"2023-004AA","EPOCH":"2026-03-19T20:51:30.410208","MEAN_MOTION":13.17650044,"ECCENTRICITY":0.00012994,"INCLINATION":87.9167,"RA_OF_ASC_NODE":23.6169,"ARG_OF_PERICENTER":60.6323,"MEAN_ANOMALY":299.4938,"EPHEMERIS_TYPE":0,"CLASSIFICATION_TYPE":"U","NORAD_CAT_ID":55164,"ELEMENT_SET_NO":999,"REV_AT_EPOCH":15582,"BSTAR":-1.1759875e-5,"MEAN_MOTION_DOT":8.0e-8,"MEAN_MOTION_DDOT":0},{"OBJECT_NAME":"ONEWEB-0624","OBJECT_ID":"2023-004AB","EPOCH":"2026-03-20T06:12:46.917504","MEAN_MOTION":13.12923006,"ECCENTRICITY":0.00016148,"INCLINATION":87.9012,"RA_OF_ASC_NODE":8.2548,"ARG_OF_PERICENTER":75.5032,"MEAN_ANOMALY":284.6276,"EPHEMERIS_TYPE":0,"CLASSIFICATION_TYPE":"U","NORAD_CAT_ID":55165,"ELEMENT_SET_NO":999,"REV_AT_EPOCH":15640,"BSTAR":0.00094820518,"MEAN_MOTION_DOT":3.56e-6,"MEAN_MOTION_DDOT":0},{"OBJECT_NAME":"ONEWEB-0625","OBJECT_ID":"2023-004AC","EPOCH":"2026-03-20T05:43:40.023552","MEAN_MOTION":13.17650465,"ECCENTRICITY":0.00018697,"INCLINATION":87.9167,"RA_OF_ASC_NODE":23.5373,"ARG_OF_PERICENTER":85.4522,"MEAN_ANOMALY":274.6823,"EPHEMERIS_TYPE":0,"CLASSIFICATION_TYPE":"U","NORAD_CAT_ID":55166,"ELEMENT_SET_NO":999,"REV_AT_EPOCH":15586,"BSTAR":0.0001197597,"MEAN_MOTION_DOT":5.9e-7,"MEAN_MOTION_DDOT":0},{"OBJECT_NAME":"ONEWEB-0626","OBJECT_ID":"2023-004AD","EPOCH":"2026-03-20T05:29:05.040384","MEAN_MOTION":13.17647964,"ECCENTRICITY":0.00023001,"INCLINATION":87.9166,"RA_OF_ASC_NODE":23.5397,"ARG_OF_PERICENTER":75.9838,"MEAN_ANOMALY":284.1549,"EPHEMERIS_TYPE":0,"CLASSIFICATION_TYPE":"U","NORAD_CAT_ID":55167,"ELEMENT_SET_NO":999,"REV_AT_EPOCH":15586,"BSTAR":0.00019537194,"MEAN_MOTION_DOT":8.9e-7,"MEAN_MOTION_DDOT":0},{"OBJECT_NAME":"ONEWEB-0627","OBJECT_ID":"2023-004AE","EPOCH":"2026-03-20T07:01:25.097376","MEAN_MOTION":13.17650633,"ECCENTRICITY":0.00014591,"INCLINATION":87.9165,"RA_OF_ASC_NODE":23.527,"ARG_OF_PERICENTER":67.6911,"MEAN_ANOMALY":292.4375,"EPHEMERIS_TYPE":0,"CLASSIFICATION_TYPE":"U","NORAD_CAT_ID":55168,"ELEMENT_SET_NO":999,"REV_AT_EPOCH":15587,"BSTAR":0.00018818389,"MEAN_MOTION_DOT":8.6e-7,"MEAN_MOTION_DDOT":0},{"OBJECT_NAME":"ONEWEB-0628","OBJECT_ID":"2023-004AF","EPOCH":"2026-03-20T06:48:38.591136","MEAN_MOTION":13.12442669,"ECCENTRICITY":0.00011836,"INCLINATION":87.9014,"RA_OF_ASC_NODE":8.3002,"ARG_OF_PERICENTER":66.7689,"MEAN_ANOMALY":293.3564,"EPHEMERIS_TYPE":0,"CLASSIFICATION_TYPE":"U","NORAD_CAT_ID":55169,"ELEMENT_SET_NO":999,"REV_AT_EPOCH":15637,"BSTAR":-0.0010174609,"MEAN_MOTION_DOT":-3.53e-6,"MEAN_MOTION_DDOT":0},{"OBJECT_NAME":"ONEWEB-0629","OBJECT_ID":"2023-004AG","EPOCH":"2026-03-20T06:26:10.953312","MEAN_MOTION":13.17648059,"ECCENTRICITY":0.00015691,"INCLINATION":87.9163,"RA_OF_ASC_NODE":23.5282,"ARG_OF_PERICENTER":86.9912,"MEAN_ANOMALY":273.1399,"EPHEMERIS_TYPE":0,"CLASSIFICATION_TYPE":"U","NORAD_CAT_ID":55170,"ELEMENT_SET_NO":999,"REV_AT_EPOCH":15587,"BSTAR":9.8431463e-5,"MEAN_MOTION_DOT":5.1e-7,"MEAN_MOTION_DDOT":0},{"OBJECT_NAME":"ONEWEB-0631","OBJECT_ID":"2023-004AH","EPOCH":"2026-03-20T04:10:23.707200","MEAN_MOTION":13.18687115,"ECCENTRICITY":0.00021399,"INCLINATION":87.9253,"RA_OF_ASC_NODE":353.1183,"ARG_OF_PERICENTER":67.6891,"MEAN_ANOMALY":292.4468,"EPHEMERIS_TYPE":0,"CLASSIFICATION_TYPE":"U","NORAD_CAT_ID":55171,"ELEMENT_SET_NO":999,"REV_AT_EPOCH":15794,"BSTAR":0.00017812072,"MEAN_MOTION_DOT":8.3e-7,"MEAN_MOTION_DDOT":0},{"OBJECT_NAME":"ONEWEB-0709","OBJECT_ID":"2023-004AJ","EPOCH":"2026-03-19T22:29:28.992768","MEAN_MOTION":13.11418187,"ECCENTRICITY":0.0002747,"INCLINATION":87.8877,"RA_OF_ASC_NODE":38.8245,"ARG_OF_PERICENTER":78.768,"MEAN_ANOMALY":281.3757,"EPHEMERIS_TYPE":0,"CLASSIFICATION_TYPE":"U","NORAD_CAT_ID":55172,"ELEMENT_SET_NO":999,"REV_AT_EPOCH":15417,"BSTAR":0.0005113,"MEAN_MOTION_DOT":1.94e-6,"MEAN_MOTION_DDOT":0}]
